IRIDIUM 33 DEB          
1 34492U 97051GH  17346.53170866  .00001277  00000-0  73759-3 0  9992
2 34492  86.4980  11.8550 0317555 202.5624 312.7563 13.86019099443257
